{"type": "FeatureCollection", "features": [ {"type": "Feature", "properties": {"norad_id": 38208, "name": "COSMOS 2251 DEB", "group": "cosmos-2251-debris", "lat": -9.86392464834188, "lon": 66.28266753006382, "alt_km": 621.4877318748922, "timestamp": "2025-12-17T15:50:10.180163+00:00", "meta": {"OBJECT_NAME": "COSMOS 2251 DEB", "OBJECT_ID": "1993-036BSY", "EPOCH": "2025-12-16T00:13:39.722592", "MEAN_MOTION": 14.84023361, "ECCENTRICITY": 0.00017369, "INCLINATION": 74.0064, "RA_OF_ASC_NODE": 72.4172, "ARG_OF_PERICENTER": 150.2716, "MEAN_ANOMALY": 26.1687, "EPHEMERIS_TYPE": 0, "CLASSIFICATION_TYPE": "U", "NORAD_CAT_ID": 38208, "ELEMENT_SET_NO": 999, "REV_AT_EPOCH": 71207, "BSTAR": 0.0016436813, "MEAN_MOTION_DOT": 0.00013687, "MEAN_MOTION_DDOT": 0}, "tle": {"line1": "1 38208U 93036BSY 25350.00948753  .00013687  00000+0  16437-2 0  9990", "line2": "2 38208  74.0064  72.4172 0001736 150.2716  26.1687 14.84023361712075"}}, "geometry": {"type": "Point", "coordinates": [66.28266753006382, -9.86392464834188]}}, {"type": "Feature", "properties": {"norad_id": 38212, "name": "COSMOS 2251 DEB", "group": "cosmos-2251-debris", "lat": -9.549319605458393, "lon": -110.29118872172614, "alt_km": 605.0069705153164, "timestamp": "2025-12-17T15:50:10.180174+00:00", "meta": {"OBJECT_NAME": "COSMOS 2251 DEB", "OBJECT_ID": "1993-036BTC", "EPOCH": "2025-12-16T22:44:21.570432", "MEAN_MOTION": 14.77712349, "ECCENTRICITY": 0.00922486, "INCLINATION": 74.0525, "RA_OF_ASC_NODE": 68.3479, "ARG_OF_PERICENTER": 134.0711, "MEAN_ANOMALY": 226.8108, "EPHEMERIS_TYPE": 0, "CLASSIFICATION_TYPE": "U", "NORAD_CAT_ID": 38212, "ELEMENT_SET_NO": 999, "REV_AT_EPOCH": 81372, "BSTAR": 0.00029648241, "MEAN_MOTION_DOT": 2.245e-05, "MEAN_MOTION_DDOT": 0}, "tle": {"line1": "1 38212U 93036BTC 25350.94747188  .00002245  00000+0  29648-3 0  9994", "line2": "2 38212  74.0525  68.3479 0092248 134.0711 226.8108 14.77712349813723"}}, "geometry": {"type": "Point", "coordinates": [-110.29118872172614, -9.549319605458393]}}, {"type": "Feature", "properties": {"norad_id": 38220, "name": "COSMOS 2251 DEB", "group": "cosmos-2251-debris", "lat": -64.6051265461507, "lon": -84.46858343539482, "alt_km": 597.6081773032083, "timestamp": "2025-12-17T15:50:10.180184+00:00", "meta": {"OBJECT_NAME": "COSMOS 2251 DEB", "OBJECT_ID": "1993-036BTL", "EPOCH": "2025-12-16T11:23:03.442560", "MEAN_MOTION": 14.93149774, "ECCENTRICITY": 0.0005067, "INCLINATION": 74.0166, "RA_OF_ASC_NODE": 60.7763, "ARG_OF_PERICENTER": 34.7198, "MEAN_ANOMALY": 325.4315, "EPHEMERIS_TYPE": 0, "CLASSIFICATION_TYPE": "U", "NORAD_CAT_ID": 38220, "ELEMENT_SET_NO": 999, "REV_AT_EPOCH": 71426, "BSTAR": 0.0020746111, "MEAN_MOTION_DOT": 0.00021688, "MEAN_MOTION_DDOT": 0}, "tle": {"line1": "1 38220U 93036BTL 25350.47434540  .00021688  00000+0  20746-2 0  9997", "line2": "2 38220  74.0166  60.7763 0005067  34.7198 325.4315 14.93149774714262"}}, "geometry": {"type": "Point", "coordinates": [-84.46858343539482, -64.6051265461507]}}, {"type": "Feature", "properties": {"norad_id": 38479, "name": "COSMOS 2251 DEB", "group": "cosmos-2251-debris", "lat": 47.5088011797109, "lon": -23.044806965276372, "alt_km": 812.8752163249928, "timestamp": "2025-12-17T15:50:10.180195+00:00", "meta": {"OBJECT_NAME": "COSMOS 2251 DEB", "OBJECT_ID": "1993-036BTP", "EPOCH": "2025-12-13T19:29:32.997408", "MEAN_MOTION": 14.3831318, "ECCENTRICITY": 0.0084157, "INCLINATION": 74.007, "RA_OF_ASC_NODE": 182.3013, "ARG_OF_PERICENTER": 291.0961, "MEAN_ANOMALY": 83.9532, "EPHEMERIS_TYPE": 0, "CLASSIFICATION_TYPE": "U", "NORAD_CAT_ID": 38479, "ELEMENT_SET_NO": 999, "REV_AT_EPOCH": 64703, "BSTAR": 0.0021939338, "MEAN_MOTION_DOT": 6.938e-05, "MEAN_MOTION_DDOT": 0}, "tle": {"line1": "1 38479U 93036BTP 25347.81218747  .00006938  00000+0  21939-2 0  9992", "line2": "2 38479  74.0070 182.3013 0084157 291.0961  83.9532 14.38313180647034"}}, "geometry": {"type": "Point", "coordinates": [-23.044806965276372, 47.5088011797109]}}, {"type": "Feature", "properties": {"norad_id": 38481, "name": "COSMOS 2251 DEB", "group": "cosmos-2251-debris", "lat": -12.902431058644009, "lon": -4.732123789566705, "alt_km": 799.6194875003157, "timestamp": "2025-12-17T15:50:10.180206+00:00", "meta": {"OBJECT_NAME": "COSMOS 2251 DEB", "OBJECT_ID": "1993-036BTR", "EPOCH": "2025-12-17T07:17:32.518176", "MEAN_MOTION": 13.94850418, "ECCENTRICITY": 0.02347974, "INCLINATION": 73.933, "RA_OF_ASC_NODE": 359.6681, "ARG_OF_PERICENTER": 299.0862, "MEAN_ANOMALY": 58.6937, "EPHEMERIS_TYPE": 0, "CLASSIFICATION_TYPE": "U", "NORAD_CAT_ID": 38481, "ELEMENT_SET_NO": 999, "REV_AT_EPOCH": 59124, "BSTAR": 0.0013103182, "MEAN_MOTION_DOT": 2.187e-05, "MEAN_MOTION_DDOT": 0}, "tle": {"line1": "1 38481U 93036BTR 25351.30384859  .00002187  00000+0  13103-2 0  9998", "line2": "2 38481  73.9330 359.6681 0234797 299.0862  58.6937 13.94850418591249"}}, "geometry": {"type": "Point", "coordinates": [-4.732123789566705, -12.902431058644009]}}, {"type": "Feature", "properties": {"norad_id": 38483, "name": "COSMOS 2251 DEB", "group": "cosmos-2251-debris", "lat": -31.487959020304345, "lon": -7.002460058562081, "alt_km": 861.5760229658608, "timestamp": "2025-12-17T15:50:10.180216+00:00", "meta": {"OBJECT_NAME": "COSMOS 2251 DEB", "OBJECT_ID": "1993-036BTT", "EPOCH": "2025-12-12T08:16:48.530496", "MEAN_MOTION": 14.28787654, "ECCENTRICITY": 0.01107994, "INCLINATION": 74.262, "RA_OF_ASC_NODE": 12.4521, "ARG_OF_PERICENTER": 118.0167, "MEAN_ANOMALY": 243.2246, "EPHEMERIS_TYPE": 0, "CLASSIFICATION_TYPE": "U", "NORAD_CAT_ID": 38483, "ELEMENT_SET_NO": 999, "REV_AT_EPOCH": 63472, "BSTAR": 0.0012977102, "MEAN_MOTION_DOT": 3.471e-05, "MEAN_MOTION_DDOT": 0}, "tle": {"line1": "1 38483U 93036BTT 25346.34500614  .00003471  00000+0  12977-2 0  9992", "line2": "2 38483  74.2620  12.4521 0110799 118.0167 243.2246 14.28787654634722"}}, "geometry": {"type": "Point", "coordinates": [-7.002460058562081, -31.487959020304345]}}, {"type": "Feature", "properties": {"norad_id": 38486, "name": "COSMOS 2251 DEB", "group": "cosmos-2251-debris", "lat": 16.403507271106477, "lon": -159.9227990765953, "alt_km": 633.8220974524656, "timestamp": "2025-12-17T15:50:10.180227+00:00", "meta": {"OBJECT_NAME": "COSMOS 2251 DEB", "OBJECT_ID": "1993-036BTW", "EPOCH": "2025-12-16T20:16:12.499104", "MEAN_MOTION": 14.73366046, "ECCENTRICITY": 0.00303976, "INCLINATION": 73.9413, "RA_OF_ASC_NODE": 196.8105, "ARG_OF_PERICENTER": 340.5168, "MEAN_ANOMALY": 34.0397, "EPHEMERIS_TYPE": 0, "CLASSIFICATION_TYPE": "U", "NORAD_CAT_ID": 38486, "ELEMENT_SET_NO": 999, "REV_AT_EPOCH": 75495, "BSTAR": 0.0017008864, "MEAN_MOTION_DOT": 0.00011084, "MEAN_MOTION_DDOT": 0}, "tle": {"line1": "1 38486U 93036BTW 25350.84458911  .00011084  00000+0  17009-2 0  9997", "line2": "2 38486  73.9413 196.8105 0030397 340.5168  34.0397 14.73366046754953"}}, "geometry": {"type": "Point", "coordinates": [-159.9227990765953, 16.403507271106477]}}, {"type": "Feature", "properties": {"norad_id": 38487, "name": "COSMOS 2251 DEB", "group": "cosmos-2251-debris", "lat": -34.81156519699422, "lon": -144.96082339517065, "alt_km": 505.20205455840096, "timestamp": "2025-12-17T15:50:10.180238+00:00", "meta": {"OBJECT_NAME": "COSMOS 2251 DEB", "OBJECT_ID": "1993-036BTX", "EPOCH": "2025-12-15T09:05:37.644288", "MEAN_MOTION": 15.17550331, "ECCENTRICITY": 0.00212693, "INCLINATION": 73.9757, "RA_OF_ASC_NODE": 28.2906, "ARG_OF_PERICENTER": 200.4312, "MEAN_ANOMALY": 159.6036, "EPHEMERIS_TYPE": 0, "CLASSIFICATION_TYPE": "U", "NORAD_CAT_ID": 38487, "ELEMENT_SET_NO": 999, "REV_AT_EPOCH": 66840, "BSTAR": 0.0011624487, "MEAN_MOTION_DOT": 0.00023508, "MEAN_MOTION_DDOT": 0}, "tle": {"line1": "1 38487U 93036BTX 25349.37890792  .00023508  00000+0  11624-2 0  9992", "line2": "2 38487  73.9757  28.2906 0021269 200.4312 159.6036 15.17550331668404"}}, "geometry": {"type": "Point", "coordinates": [-144.96082339517065, -34.81156519699422]}}, {"type": "Feature", "properties": {"norad_id": 39109, "name": "COSMOS 2251 DEB", "group": "cosmos-2251-debris", "lat": 28.83939376384542, "lon": -135.40332955041578, "alt_km": 644.1114179939386, "timestamp": "2025-12-17T15:50:10.180248+00:00", "meta": {"OBJECT_NAME": "COSMOS 2251 DEB", "OBJECT_ID": "1993-036BTY", "EPOCH": "2025-12-16T09:28:20.054784", "MEAN_MOTION": 14.70744531, "ECCENTRICITY": 0.00594106, "INCLINATION": 74.0429, "RA_OF_ASC_NODE": 217.9855, "ARG_OF_PERICENTER": 320.6122, "MEAN_ANOMALY": 213.0839, "EPHEMERIS_TYPE": 0, "CLASSIFICATION_TYPE": "U", "NORAD_CAT_ID": 39109, "ELEMENT_SET_NO": 999, "REV_AT_EPOCH": 65227, "BSTAR": 0.00033652687, "MEAN_MOTION_DOT": 2.076e-05, "MEAN_MOTION_DDOT": 0}, "tle": {"line1": "1 39109U 93036BTY 25350.39467656  .00002076  00000+0  33653-3 0  9991", "line2": "2 39109  74.0429 217.9855 0059410 320.6122 213.0839 14.70744531652276"}}, "geometry": {"type": "Point", "coordinates": [-135.40332955041578, 28.83939376384542]}}, {"type": "Feature", "properties": {"norad_id": 39110, "name": "COSMOS 2251 DEB", "group": "cosmos-2251-debris", "lat": -55.099497759579904, "lon": -103.75056441594096, "alt_km": 611.4564907403137, "timestamp": "2025-12-17T15:50:10.180258+00:00", "meta": {"OBJECT_NAME": "COSMOS 2251 DEB", "OBJECT_ID": "1993-036BTZ", "EPOCH": "2025-12-03T13:14:13.055136", "MEAN_MOTION": 14.72215365, "ECCENTRICITY": 0.00964609, "INCLINATION": 73.9598, "RA_OF_ASC_NODE": 79.4668, "ARG_OF_PERICENTER": 313.6965, "MEAN_ANOMALY": 59.6182, "EPHEMERIS_TYPE": 0, "CLASSIFICATION_TYPE": "U", "NORAD_CAT_ID": 39110, "ELEMENT_SET_NO": 999, "REV_AT_EPOCH": 62349, "BSTAR": 0.00066560445, "MEAN_MOTION_DOT": 4.484e-05, "MEAN_MOTION_DDOT": 0}, "tle": {"line1": "1 39110U 93036BTZ 25337.55153999  .00004484  00000+0  66560-3 0  9996", "line2": "2 39110  73.9598  79.4668 0096460 313.6965  59.6182 14.72215365623496"}}, "geometry": {"type": "Point", "coordinates": [-103.75056441594096, -55.099497759579904]}}]}